CSS (TIANHE)            
1 48274U 21035A   23337.80531107  .00015204  00000+0  16434-3 0  9991
2 48274  41.4694 202.9675 0007885 270.1419  89.8517 15.63249458148354
